[
  {
    "OBJECT_NAME": "STARLINK-35049",
    "OBJECT_ID": "25194L",
    "EPOCH": "2025-11-11T04:02:22.140384",
    "MEAN_MOTION": 15.05660353,
    "ECCENTRICITY": 0.0002459,
    "INCLINATION": 97.6015,
    "RA_OF_ASC_NODE": 167.5634,
    "ARG_OF_PERICENTER": 84.0954,
    "MEAN_ANOMALY": 276.0553,
    "EPHEMERIS_TYPE": 0,
    "CLASSIFICATION_TYPE": "U",
    "NORAD_CAT_ID": 65444,
    "ELEMENT_SET_NO": 999,
    "REV_AT_EPOCH": 1181,
    "BSTAR": 0.00047084,
    "MEAN_MOTION_DOT": 6.742e-05,
    "MEAN_MOTION_DDOT": 0.0,
    "TLE_LINE1": "1 65444U 25194L   25315.16831181  .00006742  00000+0  47084-3 0  9993",
    "TLE_LINE2": "2 65444  97.6015 167.5634 0002459  84.0954 276.0553 15.05660353 11818",
    "COMMENT": "Grouped by shell and plane from TLE"
  },
  {
    "OBJECT_NAME": "STARLINK-35029",
    "OBJECT_ID": "25194M",
    "EPOCH": "2025-11-11T03:54:24.302592",
    "MEAN_MOTION": 15.05650484,
    "ECCENTRICITY": 0.0001829,
    "INCLINATION": 97.6018,
    "RA_OF_ASC_NODE": 167.5709,
    "ARG_OF_PERICENTER": 85.9694,
    "MEAN_ANOMALY": 274.1742,
    "EPHEMERIS_TYPE": 0,
    "CLASSIFICATION_TYPE": "U",
    "NORAD_CAT_ID": 65445,
    "ELEMENT_SET_NO": 999,
    "REV_AT_EPOCH": 1181,
    "BSTAR": 0.00051175,
    "MEAN_MOTION_DOT": 7.331e-05,
    "MEAN_MOTION_DDOT": 0.0,
    "TLE_LINE1": "1 65445U 25194M   25315.16278128  .00007331  00000+0  51175-3 0  9991",
    "TLE_LINE2": "2 65445  97.6018 167.5709 0001829  85.9694 274.1742 15.05650484 11819",
    "COMMENT": "Grouped by shell and plane from TLE"
  },
  {
    "OBJECT_NAME": "STARLINK-34991",
    "OBJECT_ID": "25194N",
    "EPOCH": "2025-11-11T03:42:26.175168",
    "MEAN_MOTION": 15.05652772,
    "ECCENTRICITY": 0.0001618,
    "INCLINATION": 97.602,
    "RA_OF_ASC_NODE": 167.5824,
    "ARG_OF_PERICENTER": 80.9565,
    "MEAN_ANOMALY": 279.1845,
    "EPHEMERIS_TYPE": 0,
    "CLASSIFICATION_TYPE": "U",
    "NORAD_CAT_ID": 65446,
    "ELEMENT_SET_NO": 999,
    "REV_AT_EPOCH": 1181,
    "BSTAR": 0.00045327000000000003,
    "MEAN_MOTION_DOT": 6.486e-05,
    "MEAN_MOTION_DDOT": 0.0,
    "TLE_LINE1": "1 65446U 25194N   25315.15446962  .00006486  00000+0  45327-3 0  9996",
    "TLE_LINE2": "2 65446  97.6020 167.5824 0001618  80.9565 279.1845 15.05652772 11810",
    "COMMENT": "Grouped by shell and plane from TLE"
  },
  {
    "OBJECT_NAME": "STARLINK-34920",
    "OBJECT_ID": "25194P",
    "EPOCH": "2025-11-11T03:26:29.283936",
    "MEAN_MOTION": 15.0565262,
    "ECCENTRICITY": 0.0001806,
    "INCLINATION": 97.6039,
    "RA_OF_ASC_NODE": 167.5956,
    "ARG_OF_PERICENTER": 82.569,
    "MEAN_ANOMALY": 277.5742,
    "EPHEMERIS_TYPE": 0,
    "CLASSIFICATION_TYPE": "U",
    "NORAD_CAT_ID": 65447,
    "ELEMENT_SET_NO": 999,
    "REV_AT_EPOCH": 1181,
    "BSTAR": 0.00045656,
    "MEAN_MOTION_DOT": 6.533e-05,
    "MEAN_MOTION_DDOT": 0.0,
    "TLE_LINE1": "1 65447U 25194P   25315.14339449  .00006533  00000+0  45656-3 0  9995",
    "TLE_LINE2": "2 65447  97.6039 167.5956 0001806  82.5690 277.5742 15.05652620 11813",
    "COMMENT": "Grouped by shell and plane from TLE"
  },
  {
    "OBJECT_NAME": "STARLINK-35030",
    "OBJECT_ID": "25194Q",
    "EPOCH": "2025-11-11T04:10:20.691840",
    "MEAN_MOTION": 15.05648909,
    "ECCENTRICITY": 0.0002099,
    "INCLINATION": 97.6002,
    "RA_OF_ASC_NODE": 167.559,
    "ARG_OF_PERICENTER": 74.5914,
    "MEAN_ANOMALY": 285.5545,
    "EPHEMERIS_TYPE": 0,
    "CLASSIFICATION_TYPE": "U",
    "NORAD_CAT_ID": 65448,
    "ELEMENT_SET_NO": 999,
    "REV_AT_EPOCH": 1181,
    "BSTAR": 0.00018095,
    "MEAN_MOTION_DOT": 2.551e-05,
    "MEAN_MOTION_DDOT": 0.0,
    "TLE_LINE1": "1 65448U 25194Q   25315.17385060  .00002551  00000+0  18095-3 0  9992",
    "TLE_LINE2": "2 65448  97.6002 167.5590 0002099  74.5914 285.5545 15.05648909 11818",
    "COMMENT": "Grouped by shell and plane from TLE"
  },
  {
    "OBJECT_NAME": "STARLINK-35009",
    "OBJECT_ID": "25194R",
    "EPOCH": "2025-11-11T06:25:55.844544",
    "MEAN_MOTION": 15.05651428,
    "ECCENTRICITY": 0.0002604,
    "INCLINATION": 97.604,
    "RA_OF_ASC_NODE": 167.7393,
    "ARG_OF_PERICENTER": 69.0912,
    "MEAN_ANOMALY": 291.0594,
    "EPHEMERIS_TYPE": 0,
    "CLASSIFICATION_TYPE": "U",
    "NORAD_CAT_ID": 65449,
    "ELEMENT_SET_NO": 999,
    "REV_AT_EPOCH": 1183,
    "BSTAR": 0.00028079,
    "MEAN_MOTION_DOT": 3.993e-05,
    "MEAN_MOTION_DDOT": 0.0,
    "TLE_LINE1": "1 65449U 25194R   25315.26800746  .00003993  00000+0  28079-3 0  9990",
    "TLE_LINE2": "2 65449  97.6040 167.7393 0002604  69.0912 291.0594 15.05651428 11831",
    "COMMENT": "Grouped by shell and plane from TLE"
  },
  {
    "OBJECT_NAME": "STARLINK-34970",
    "OBJECT_ID": "25194S",
    "EPOCH": "2025-11-11T03:06:33.271200",
    "MEAN_MOTION": 15.05664948,
    "ECCENTRICITY": 0.0002122,
    "INCLINATION": 97.6033,
    "RA_OF_ASC_NODE": 167.462,
    "ARG_OF_PERICENTER": 90.89,
    "MEAN_ANOMALY": 269.257,
    "EPHEMERIS_TYPE": 0,
    "CLASSIFICATION_TYPE": "U",
    "NORAD_CAT_ID": 65450,
    "ELEMENT_SET_NO": 999,
    "REV_AT_EPOCH": 1180,
    "BSTAR": 0.0006318399999999999,
    "MEAN_MOTION_DOT": 9.072e-05,
    "MEAN_MOTION_DDOT": 0.0,
    "TLE_LINE1": "1 65450U 25194S   25315.12955175  .00009072  00000+0  63184-3 0  9994",
    "TLE_LINE2": "2 65450  97.6033 167.4620 0002122  90.8900 269.2570 15.05664948 11808",
    "COMMENT": "Grouped by shell and plane from TLE"
  },
  {
    "OBJECT_NAME": "STARLINK-35039",
    "OBJECT_ID": "25194T",
    "EPOCH": "2025-11-11T03:58:23.044800",
    "MEAN_MOTION": 15.05650062,
    "ECCENTRICITY": 0.0002076,
    "INCLINATION": 97.6016,
    "RA_OF_ASC_NODE": 167.5674,
    "ARG_OF_PERICENTER": 90.7745,
    "MEAN_ANOMALY": 269.3719,
    "EPHEMERIS_TYPE": 0,
    "CLASSIFICATION_TYPE": "U",
    "NORAD_CAT_ID": 65451,
    "ELEMENT_SET_NO": 999,
    "REV_AT_EPOCH": 1181,
    "BSTAR": 0.00049775,
    "MEAN_MOTION_DOT": 7.129e-05,
    "MEAN_MOTION_DDOT": 0.0,
    "TLE_LINE1": "1 65451U 25194T   25315.16554450  .00007129  00000+0  49775-3 0  9991",
    "TLE_LINE2": "2 65451  97.6016 167.5674 0002076  90.7745 269.3719 15.05650062 11813",
    "COMMENT": "Grouped by shell and plane from TLE"
  },
  {
    "OBJECT_NAME": "STARLINK-35084",
    "OBJECT_ID": "25194U",
    "EPOCH": "2025-11-11T04:18:20.822688",
    "MEAN_MOTION": 15.05634692,
    "ECCENTRICITY": 0.0002895,
    "INCLINATION": 97.6022,
    "RA_OF_ASC_NODE": 167.552,
    "ARG_OF_PERICENTER": 87.1525,
    "MEAN_ANOMALY": 273.0033,
    "EPHEMERIS_TYPE": 0,
    "CLASSIFICATION_TYPE": "U",
    "NORAD_CAT_ID": 65452,
    "ELEMENT_SET_NO": 999,
    "REV_AT_EPOCH": 1181,
    "BSTAR": 0.0016356,
    "MEAN_MOTION_DOT": 0.00023609,
    "MEAN_MOTION_DDOT": 0.0,
    "TLE_LINE1": "1 65452U 25194U   25315.17940767  .00023609  00000+0  16356-2 0  9992",
    "TLE_LINE2": "2 65452  97.6022 167.5520 0002895  87.1525 273.0033 15.05634692 11818",
    "COMMENT": "Grouped by shell and plane from TLE"
  },
  {
    "OBJECT_NAME": "STARLINK-34988",
    "OBJECT_ID": "25194V",
    "EPOCH": "2025-11-11T06:23:37.950144",
    "MEAN_MOTION": 15.00626225,
    "ECCENTRICITY": 0.0003722,
    "INCLINATION": 97.602,
    "RA_OF_ASC_NODE": 169.6346,
    "ARG_OF_PERICENTER": 71.8016,
    "MEAN_ANOMALY": 288.3613,
    "EPHEMERIS_TYPE": 0,
    "CLASSIFICATION_TYPE": "U",
    "NORAD_CAT_ID": 65453,
    "ELEMENT_SET_NO": 999,
    "REV_AT_EPOCH": 1195,
    "BSTAR": 0.0006856400000000001,
    "MEAN_MOTION_DOT": 8.615e-05,
    "MEAN_MOTION_DDOT": 0.0,
    "TLE_LINE1": "1 65453U 25194V   25315.26641146  .00008615  00000+0  68564-3 0  9991",
    "TLE_LINE2": "2 65453  97.6020 169.6346 0003722  71.8016 288.3613 15.00626225 11957",
    "COMMENT": "Grouped by shell and plane from TLE"
  },
  {
    "OBJECT_NAME": "STARLINK-35059",
    "OBJECT_ID": "25194W",
    "EPOCH": "2025-11-11T06:12:33.261984",
    "MEAN_MOTION": 15.00452803,
    "ECCENTRICITY": 0.0002795,
    "INCLINATION": 97.6021,
    "RA_OF_ASC_NODE": 169.169,
    "ARG_OF_PERICENTER": 88.0979,
    "MEAN_ANOMALY": 272.0565,
    "EPHEMERIS_TYPE": 0,
    "CLASSIFICATION_TYPE": "U",
    "NORAD_CAT_ID": 65454,
    "ELEMENT_SET_NO": 999,
    "REV_AT_EPOCH": 1192,
    "BSTAR": 0.00024272,
    "MEAN_MOTION_DOT": 2.996e-05,
    "MEAN_MOTION_DDOT": 0.0,
    "TLE_LINE1": "1 65454U 25194W   25315.25871831  .00002996  00000+0  24272-3 0  9991",
    "TLE_LINE2": "2 65454  97.6021 169.1690 0002795  88.0979 272.0565 15.00452803 11925",
    "COMMENT": "Grouped by shell and plane from TLE"
  },
  {
    "OBJECT_NAME": "STARLINK-34728",
    "OBJECT_ID": "25194X",
    "EPOCH": "2025-11-11T04:34:15.831264",
    "MEAN_MOTION": 15.05659613,
    "ECCENTRICITY": 0.000236,
    "INCLINATION": 97.6021,
    "RA_OF_ASC_NODE": 167.5352,
    "ARG_OF_PERICENTER": 88.6034,
    "MEAN_ANOMALY": 271.5463,
    "EPHEMERIS_TYPE": 0,
    "CLASSIFICATION_TYPE": "U",
    "NORAD_CAT_ID": 65455,
    "ELEMENT_SET_NO": 999,
    "REV_AT_EPOCH": 1181,
    "BSTAR": 0.0005580699999999999,
    "MEAN_MOTION_DOT": 8.003e-05,
    "MEAN_MOTION_DDOT": 0.0,
    "TLE_LINE1": "1 65455U 25194X   25315.19046101  .00008003  00000+0  55807-3 0  9992",
    "TLE_LINE2": "2 65455  97.6021 167.5352 0002360  88.6034 271.5463 15.05659613 11811",
    "COMMENT": "Grouped by shell and plane from TLE"
  },
  {
    "OBJECT_NAME": "STARLINK-35005",
    "OBJECT_ID": "25194Y",
    "EPOCH": "2025-11-11T03:18:30.830976",
    "MEAN_MOTION": 15.05656661,
    "ECCENTRICITY": 0.0002231,
    "INCLINATION": 97.6037,
    "RA_OF_ASC_NODE": 167.6056,
    "ARG_OF_PERICENTER": 81.3535,
    "MEAN_ANOMALY": 278.7944,
    "EPHEMERIS_TYPE": 0,
    "CLASSIFICATION_TYPE": "U",
    "NORAD_CAT_ID": 65456,
    "ELEMENT_SET_NO": 999,
    "REV_AT_EPOCH": 1181,
    "BSTAR": 0.00058228,
    "MEAN_MOTION_DOT": 8.353e-05,
    "MEAN_MOTION_DDOT": 0.0,
    "TLE_LINE1": "1 65456U 25194Y   25315.13785684  .00008353  00000+0  58228-3 0  9991",
    "TLE_LINE2": "2 65456  97.6037 167.6056 0002231  81.3535 278.7944 15.05656661 11817",
    "COMMENT": "Grouped by shell and plane from TLE"
  }
]